KUIPER-00008            
1 63724U 25088A   25279.80626249  .00008331  00000+0  69072-3 0  9998
2 63724  51.8896  68.6113 0010951 303.8255  56.1672 14.99528448 24971
KUIPER-00009            
1 63725U 25088B   25279.81504445  .00003552  00000+0  49456-3 0  9997
2 63725  51.9010  67.0395 0012036 314.4207  45.5770 14.79931670 24993
KUIPER-00010            
1 63726U 25088C   25279.84904826 -.00099294  00000+0 -65233-2 0  9998
2 63726  51.8849  45.0815 0016125 354.2684   5.8103 15.07457066 24926
KUIPER-00011            
1 63727U 25088D   25280.00001157 -.00038030  00000+0 -48122-2 0  9993
2 63727  51.8986  50.2956 0013125 335.8247 190.0962 14.81359728  3227
KUIPER-00012            
1 63728U 25088E   25279.78318167  .00011364  00000+0  51760-3 0  9991
2 63728  51.8754  45.1676 0010437 319.5270  40.4933 15.21085791 25008
KUIPER-00013            
1 63729U 25088F   25279.13849269  .00001610  00000+0  24023-3 0  9998
2 63729  51.9030  71.4959 0007234 232.4199 127.6107 14.79950127 24687
KUIPER-00014            
1 63730U 25088G   25279.74469897  .00000545  00000+0  10069-3 0  9993
2 63730  51.9037  69.7822 0007245 302.9598  57.0667 14.79943149 24574
KUIPER-00015            
1 63731U 25088H   25279.72748216  .00004578  00000+0  60478-3 0  9996
2 63731  51.8989  81.6700 0009877 287.6711  72.3173 14.81603279 24861
